{"type": "FeatureCollection", "features": [ {"type": "Feature", "properties": {"norad_id": 36160, "name": "FENGYUN 1C DEB", "group": "fengyun-1c-debris", "lat": 54.69974783312002, "lon": 22.94649383044608, "alt_km": 750.5837003848756, "timestamp": "2025-12-15T22:44:29.216086+00:00", "meta": {"OBJECT_NAME": "FENGYUN 1C DEB", "OBJECT_ID": "1999-025DSH", "EPOCH": "2025-12-12T19:23:25.399104", "MEAN_MOTION": 14.13217835, "ECCENTRICITY": 0.0135077, "INCLINATION": 98.1387, "RA_OF_ASC_NODE": 188.429, "ARG_OF_PERICENTER": 152.2609, "MEAN_ANOMALY": 208.5855, "EPHEMERIS_TYPE": 0, "CLASSIFICATION_TYPE": "U", "NORAD_CAT_ID": 36160, "ELEMENT_SET_NO": 999, "REV_AT_EPOCH": 60053, "BSTAR": 0.00034837814, "MEAN_MOTION_DOT": 6.74e-06, "MEAN_MOTION_DDOT": 0}, "tle": {"line1": "1 36160U 99025DSH 25346.80793286  .00000674  00000+0  34838-3 0  9999", "line2": "2 36160  98.1387 188.4290 0135077 152.2609 208.5855 14.13217835600536"}}, "geometry": {"type": "Point", "coordinates": [22.94649383044608, 54.69974783312002]}}, {"type": "Feature", "properties": {"norad_id": 36163, "name": "FENGYUN 1C DEB", "group": "fengyun-1c-debris", "lat": -65.5805527792591, "lon": -6.297219438791521, "alt_km": 730.0973468991069, "timestamp": "2025-12-15T22:44:29.216096+00:00", "meta": {"OBJECT_NAME": "FENGYUN 1C DEB", "OBJECT_ID": "1999-025DSL", "EPOCH": "2025-12-13T00:29:29.136768", "MEAN_MOTION": 14.59067364, "ECCENTRICITY": 0.00385289, "INCLINATION": 99.0787, "RA_OF_ASC_NODE": 191.1254, "ARG_OF_PERICENTER": 70.7089, "MEAN_ANOMALY": 289.8269, "EPHEMERIS_TYPE": 0, "CLASSIFICATION_TYPE": "U", "NORAD_CAT_ID": 36163, "ELEMENT_SET_NO": 999, "REV_AT_EPOCH": 89191, "BSTAR": 0.0044174504, "MEAN_MOTION_DOT": 0.00020992, "MEAN_MOTION_DDOT": 0}, "tle": {"line1": "1 36163U 99025DSL 25347.02047612  .00020992  00000+0  44175-2 0  9991", "line2": "2 36163  99.0787 191.1254 0038528  70.7089 289.8269 14.59067364891918"}}, "geometry": {"type": "Point", "coordinates": [-6.297219438791521, -65.5805527792591]}}, {"type": "Feature", "properties": {"norad_id": 36167, "name": "FENGYUN 1C DEB", "group": "fengyun-1c-debris", "lat": -47.51041128735524, "lon": 67.51236699594482, "alt_km": 686.2017082883431, "timestamp": "2025-12-15T22:44:29.216108+00:00", "meta": {"OBJECT_NAME": "FENGYUN 1C DEB", "OBJECT_ID": "1999-025DSQ", "EPOCH": "2025-12-15T00:08:52.263744", "MEAN_MOTION": 14.49271942, "ECCENTRICITY": 0.00688076, "INCLINATION": 98.8129, "RA_OF_ASC_NODE": 256.2804, "ARG_OF_PERICENTER": 237.4742, "MEAN_ANOMALY": 121.979, "EPHEMERIS_TYPE": 0, "CLASSIFICATION_TYPE": "U", "NORAD_CAT_ID": 36167, "ELEMENT_SET_NO": 999, "REV_AT_EPOCH": 67312, "BSTAR": 0.00069585373, "MEAN_MOTION_DOT": 2.684e-05, "MEAN_MOTION_DDOT": 0}, "tle": {"line1": "1 36167U 99025DSQ 25349.00616046  .00002684  00000+0  69585-3 0  9999", "line2": "2 36167  98.8129 256.2804 0068807 237.4742 121.9790 14.49271942673128"}}, "geometry": {"type": "Point", "coordinates": [67.51236699594482, -47.51041128735524]}}, {"type": "Feature", "properties": {"norad_id": 36173, "name": "FENGYUN 1C DEB", "group": "fengyun-1c-debris", "lat": 6.827014853563815, "lon": -54.12556133638657, "alt_km": 913.5258487281262, "timestamp": "2025-12-15T22:44:29.216119+00:00", "meta": {"OBJECT_NAME": "FENGYUN 1C DEB", "OBJECT_ID": "1999-025DSW", "EPOCH": "2025-12-13T15:06:11.838816", "MEAN_MOTION": 14.25174988, "ECCENTRICITY": 0.01471409, "INCLINATION": 98.2142, "RA_OF_ASC_NODE": 304.6937, "ARG_OF_PERICENTER": 182.5109, "MEAN_ANOMALY": 177.535, "EPHEMERIS_TYPE": 0, "CLASSIFICATION_TYPE": "U", "NORAD_CAT_ID": 36173, "ELEMENT_SET_NO": 999, "REV_AT_EPOCH": 59103, "BSTAR": 0.00034958587, "MEAN_MOTION_DOT": 8.78e-06, "MEAN_MOTION_DDOT": 0}, "tle": {"line1": "1 36173U 99025DSW 25347.62930369  .00000878  00000+0  34959-3 0  9999", "line2": "2 36173  98.2142 304.6937 0147140 182.5109 177.5350 14.25174988591038"}}, "geometry": {"type": "Point", "coordinates": [-54.12556133638657, 6.827014853563815]}}, {"type": "Feature", "properties": {"norad_id": 36180, "name": "FENGYUN 1C DEB", "group": "fengyun-1c-debris", "lat": -67.56618359419136, "lon": 74.55267721102432, "alt_km": 828.7286937879617, "timestamp": "2025-12-15T22:44:29.216129+00:00", "meta": {"OBJECT_NAME": "FENGYUN 1C DEB", "OBJECT_ID": "1999-025DTD", "EPOCH": "2025-12-05T21:21:22.276224", "MEAN_MOTION": 14.20680074, "ECCENTRICITY": 0.02106275, "INCLINATION": 98.4572, "RA_OF_ASC_NODE": 43.7979, "ARG_OF_PERICENTER": 50.8055, "MEAN_ANOMALY": 311.1621, "EPHEMERIS_TYPE": 0, "CLASSIFICATION_TYPE": "U", "NORAD_CAT_ID": 36180, "ELEMENT_SET_NO": 999, "REV_AT_EPOCH": 70486, "BSTAR": 0.00091841135, "MEAN_MOTION_DOT": 2.432e-05, "MEAN_MOTION_DDOT": 0}, "tle": {"line1": "1 36180U 99025DTD 25339.88984116  .00002432  00000+0  91841-3 0  9996", "line2": "2 36180  98.4572  43.7979 0210627  50.8055 311.1621 14.20680074704867"}}, "geometry": {"type": "Point", "coordinates": [74.55267721102432, -67.56618359419136]}}, {"type": "Feature", "properties": {"norad_id": 36182, "name": "FENGYUN 1C DEB", "group": "fengyun-1c-debris", "lat": -26.868475302978037, "lon": -77.68087366804396, "alt_km": 782.6217226682038, "timestamp": "2025-12-15T22:44:29.216139+00:00", "meta": {"OBJECT_NAME": "FENGYUN 1C DEB", "OBJECT_ID": "1999-025DTF", "EPOCH": "2025-12-15T01:06:35.171424", "MEAN_MOTION": 14.34744295, "ECCENTRICITY": 0.00220309, "INCLINATION": 99.0883, "RA_OF_ASC_NODE": 276.7198, "ARG_OF_PERICENTER": 69.4368, "MEAN_ANOMALY": 290.9176, "EPHEMERIS_TYPE": 0, "CLASSIFICATION_TYPE": "U", "NORAD_CAT_ID": 36182, "ELEMENT_SET_NO": 999, "REV_AT_EPOCH": 87990, "BSTAR": 0.0010961791, "MEAN_MOTION_DOT": 3.067e-05, "MEAN_MOTION_DDOT": 0}, "tle": {"line1": "1 36182U 99025DTF 25349.04624041  .00003067  00000+0  10962-2 0  9994", "line2": "2 36182  99.0883 276.7198 0022030  69.4368 290.9176 14.34744295879902"}}, "geometry": {"type": "Point", "coordinates": [-77.68087366804396, -26.868475302978037]}}, {"type": "Feature", "properties": {"norad_id": 36186, "name": "FENGYUN 1C DEB", "group": "fengyun-1c-debris", "lat": 22.248463548648928, "lon": -149.8768680413685, "alt_km": 519.6772541037162, "timestamp": "2025-12-15T22:44:29.216149+00:00", "meta": {"OBJECT_NAME": "FENGYUN 1C DEB", "OBJECT_ID": "1999-025DTK", "EPOCH": "2025-12-06T21:01:26.135616", "MEAN_MOTION": 15.09149878, "ECCENTRICITY": 0.00147295, "INCLINATION": 98.9889, "RA_OF_ASC_NODE": 203.1836, "ARG_OF_PERICENTER": 349.9169, "MEAN_ANOMALY": 20.7197, "EPHEMERIS_TYPE": 0, "CLASSIFICATION_TYPE": "U", "NORAD_CAT_ID": 36186, "ELEMENT_SET_NO": 999, "REV_AT_EPOCH": 61482, "BSTAR": 0.015546812, "MEAN_MOTION_DOT": 0.00256087, "MEAN_MOTION_DDOT": 0}, "tle": {"line1": "1 36186U 99025DTK 25340.87599694  .00256087  00000+0  15547-1 0  9990", "line2": "2 36186  98.9889 203.1836 0014729 349.9169  20.7197 15.09149878614823"}}, "geometry": {"type": "Point", "coordinates": [-149.8768680413685, 22.248463548648928]}}, {"type": "Feature", "properties": {"norad_id": 36188, "name": "FENGYUN 1C DEB", "group": "fengyun-1c-debris", "lat": -21.50972347874659, "lon": 93.89951891048366, "alt_km": 671.4202672292049, "timestamp": "2025-12-15T22:44:29.216162+00:00", "meta": {"OBJECT_NAME": "FENGYUN 1C DEB", "OBJECT_ID": "1999-025DTM", "EPOCH": "2025-12-10T17:53:45.757536", "MEAN_MOTION": 14.60603785, "ECCENTRICITY": 0.00476278, "INCLINATION": 98.5851, "RA_OF_ASC_NODE": 85.0962, "ARG_OF_PERICENTER": 310.9096, "MEAN_ANOMALY": 48.7983, "EPHEMERIS_TYPE": 0, "CLASSIFICATION_TYPE": "U", "NORAD_CAT_ID": 36188, "ELEMENT_SET_NO": 999, "REV_AT_EPOCH": 88023, "BSTAR": 0.0038994823, "MEAN_MOTION_DOT": 0.00019263, "MEAN_MOTION_DDOT": 0}, "tle": {"line1": "1 36188U 99025DTM 25344.74566849  .00019263  00000+0  38995-2 0  9994", "line2": "2 36188  98.5851  85.0962 0047627 310.9096  48.7983 14.60603785880238"}}, "geometry": {"type": "Point", "coordinates": [93.89951891048366, -21.50972347874659]}}, {"type": "Feature", "properties": {"norad_id": 36198, "name": "FENGYUN 1C DEB", "group": "fengyun-1c-debris", "lat": 8.063962364718844, "lon": -159.61692009127856, "alt_km": 838.5438185339635, "timestamp": "2025-12-15T22:44:29.216172+00:00", "meta": {"OBJECT_NAME": "FENGYUN 1C DEB", "OBJECT_ID": "1999-025DTX", "EPOCH": "2025-12-15T01:28:15.386880", "MEAN_MOTION": 14.07914815, "ECCENTRICITY": 0.00967011, "INCLINATION": 98.6233, "RA_OF_ASC_NODE": 18.3045, "ARG_OF_PERICENTER": 108.8601, "MEAN_ANOMALY": 252.3085, "EPHEMERIS_TYPE": 0, "CLASSIFICATION_TYPE": "U", "NORAD_CAT_ID": 36198, "ELEMENT_SET_NO": 999, "REV_AT_EPOCH": 63620, "BSTAR": 0.0011019873, "MEAN_MOTION_DOT": 1.912e-05, "MEAN_MOTION_DDOT": 0}, "tle": {"line1": "1 36198U 99025DTX 25349.06128920  .00001912  00000+0  11020-2 0  9991", "line2": "2 36198  98.6233  18.3045 0096701 108.8601 252.3085 14.07914815636200"}}, "geometry": {"type": "Point", "coordinates": [-159.61692009127856, 8.063962364718844]}}, {"type": "Feature", "properties": {"norad_id": 36199, "name": "FENGYUN 1C DEB", "group": "fengyun-1c-debris", "lat": -81.58452109561584, "lon": 91.15655377181199, "alt_km": 855.6631599034154, "timestamp": "2025-12-15T22:44:29.216184+00:00", "meta": {"OBJECT_NAME": "FENGYUN 1C DEB", "OBJECT_ID": "1999-025DTY", "EPOCH": "2025-12-14T18:36:07.375104", "MEAN_MOTION": 14.2965262, "ECCENTRICITY": 0.0092845, "INCLINATION": 98.2897, "RA_OF_ASC_NODE": 9.8178, "ARG_OF_PERICENTER": 61.5398, "MEAN_ANOMALY": 299.51, "EPHEMERIS_TYPE": 0, "CLASSIFICATION_TYPE": "U", "NORAD_CAT_ID": 36199, "ELEMENT_SET_NO": 999, "REV_AT_EPOCH": 65009, "BSTAR": 0.00030192646, "MEAN_MOTION_DOT": 7.7e-06, "MEAN_MOTION_DDOT": 0}, "tle": {"line1": "1 36199U 99025DTY 25348.77508536  .00000770  00000+0  30193-3 0  9998", "line2": "2 36199  98.2897   9.8178 0092845  61.5398 299.5100 14.29652620650099"}}, "geometry": {"type": "Point", "coordinates": [91.15655377181199, -81.58452109561584]}}]}